OBJECT_NAME,OBJECT_ID,EPOCH,MEAN_MOTION,ECCENTRICITY,INCLINATION,RA_OF_ASC_NODE,ARG_OF_PERICENTER,MEAN_ANOMALY,EPHEMERIS_TYPE,CLASSIFICATION_TYPE,NORAD_CAT_ID,ELEMENT_SET_NO,REV_AT_EPOCH,BSTAR,MEAN_MOTION_DOT,MEAN_MOTION_DDOT
ALOS-2,2014-029A,2026-07-22T13:53:27.341952,14.79472685,.00016112,97.9225,300.2374,93.5156,266.6240,0,U,39766,999,65681,.19186427E-3,.1382E-4,0
KAZEOSAT 2,2014-033A,2026-07-22T14:15:01.306368,14.85507840,.00079558,97.5402,41.3329,192.0448,168.0579,0,U,40010,999,65421,.9229325E-4,.747E-5,0
HODOYOSHI-4,2014-033B,2026-07-22T14:28:38.155296,14.88201555,.00233539,97.5469,26.7193,184.2830,175.8191,0,U,40011,999,65407,.1594792E-3,.1425E-4,0
DEIMOS-2,2014-033D,2026-07-22T14:51:12.540960,14.93812410,.00015403,97.5787,76.8554,104.1990,255.9402,0,U,40013,999,64301,.11693755E-3,.1186E-4,0
HODOYOSHI-3,2014-033F,2026-07-22T08:21:24.080832,14.85447776,.00315457,97.6454,4.9818,237.2982,122.5191,0,U,40015,999,65284,.10525415E-3,.862E-5,0
SPOT 7,2014-034A,2026-07-22T14:09:40.682880,14.60985567,.00016664,98.0607,265.1664,93.9789,266.1602,0,U,40053,999,64230,.10398477E-3,.464E-5,0
SKYSAT-B,2014-037D,2026-07-21T14:53:10.114944,14.88102443,.00060203,98.3858,163.5543,153.0763,207.0765,0,U,40072,999,65108,.10248307E-3,.881E-5,0
WORLDVIEW-3 (WV-3),2014-048A,2026-07-22T11:22:35.008320,14.85072035,.000182,97.8550,277.8178,144.7822,215.3513,0,U,40115,999,64714,.73427433E-4,.574E-5,0
GAOFEN-2,2014-049A,2026-07-22T15:34:28.051392,14.80932979,.00086363,98.0088,267.8192,113.9973,246.2145,0,U,40118,999,64448,.42406859E-4,.275E-5,0
YAOGAN-21,2014-053A,2026-07-22T14:57:25.926336,15.26833830,.00068501,97.1460,242.3447,341.0137,19.0846,0,U,40143,999,66036,.3584841E-3,.9391E-4,0
YAOGAN-22,2014-063A,2026-07-22T07:42:37.178496,13.15531668,.00069,100.7772,355.1848,110.6743,249.5108,0,U,40275,999,56443,.50820909E-4,-.28E-6,0
ASNARO,2014-070A,2026-07-22T15:38:40.594272,15.19458796,.00046793,97.3436,278.8104,70.7149,289.4591,0,U,40298,999,64939,.50970046E-3,.10751E-3,0
YAOGAN-24,2014-072A,2026-07-22T16:03:54.191808,14.76123680,.001519,98.1535,341.3116,146.4669,213.7504,0,U,40310,999,62895,.59366815E-4,.357E-5,0
CBERS 4,2014-079A,2026-07-22T14:02:31.892640,14.35517807,.00005636,98.3511,259.3026,76.6297,283.4952,0,U,40336,999,60903,.75065755E-4,.174E-5,0
YAOGAN-26,2014-088A,2026-07-22T14:54:15.255360,15.48659385,.0000978,97.0658,203.0357,270.2345,89.8794,0,U,40362,999,64318,.21296529E-3,.11301E-3,0
SMAP,2015-003A,2026-07-22T13:36:17.083296,14.63393432,.00016351,98.1287,210.1621,92.5937,267.5452,0,U,40376,999,61279,.66541915E-4,.297E-5,0
KOMPSAT-3A,2015-014A,2026-07-22T13:45:05.111712,15.55777731,.00551236,97.6901,197.5723,49.5579,311.0462,0,U,40536,999,62731,.44684748E-3,.32981E-3,0
SENTINEL-2A,2015-028A,2026-07-22T14:23:01.658400,14.30817198,.00013429,98.5669,277.9461,96.2575,263.8761,0,U,40697,999,57879,.17852E-3,.424E-5,0
GAOFEN-8,2015-030A,2026-07-22T14:36:12.868128,15.47164267,.00096912,97.6905,39.1354,73.2799,286.9513,0,U,40701,999,61692,.67597866E-3,.34386E-3,0
CARBONITE 1 (CBNT-1),2015-032D,2026-07-22T14:10:00.681888,14.83684278,.00145843,97.6534,20.1796,172.1669,187.9776,0,U,40718,999,59459,.24143848E-3,.1947E-4,0
YAOGAN-27,2015-040A,2026-07-22T14:33:02.649888,13.16072770,.00087656,100.1184,188.4552,128.8690,231.3207,0,U,40878,999,52232,.13747683E-3,.1E-6,0
GAOFEN-9 01,2015-047A,2026-07-22T14:56:24.204768,14.82945159,.00279152,97.6262,237.7053,26.9041,333.3614,0,U,40894,999,58544,.10215211E-3,.783E-5,0
YAOGAN-28,2015-064A,2026-07-22T15:05:24.897696,15.27828046,.0011877,97.3113,341.1874,70.0312,290.2206,0,U,41026,999,59609,.25866885E-3,.697E-4,0
YAOGAN-29,2015-069A,2026-07-22T14:21:26.844768,14.83111615,.00000851,98.0024,232.2850,64.8357,295.2865,0,U,41038,999,57587,.63568957E-4,.464E-5,0
KENT RIDGE 1,2015-077B,2026-07-22T15:42:22.023648,15.23313975,.00082742,14.9808,2.1785,19.8759,340.1885,0,U,41167,999,58651,.10178184E-3,.3253E-4,0
GAOFEN-4,2015-083A,2026-07-21T14:23:34.672704,1.00270335,.00041624,0.4439,83.8614,121.1097,55.9718,0,U,41194,999,3887,0,-.333E-5,0
JASON-3,2016-002A,2026-07-22T13:48:48.777120,12.87628961,.00081261,66.0415,51.4349,270.2151,89.7937,0,U,41240,999,49180,.68610367E-4,-.45E-6,0
SENTINEL-3A,2016-011A,2026-07-22T11:48:17.136864,14.26741178,.00012981,98.6231,270.3652,88.4537,271.6792,0,U,41335,999,54309,.39659925E-4,.52E-6,0
ZIYUAN 3-02 (ZY 3-02),2016-033A,2026-07-22T15:24:12.206016,15.21153676,.00135061,97.3820,278.7339,162.1251,198.0463,0,U,41556,999,56337,.24714887E-3,.5449E-4,0
CARTOSAT-2C,2016-040A,2026-07-22T15:03:01.948896,15.19307376,.00088489,97.4466,263.1138,21.8700,338.2911,0,U,41599,999,55909,.3154447E-3,.6599E-4,0
