{"epoch":1784762836,"count":18316,"objects":[{"id":"39766","name":"ALOS 2","type":"PAYLOAD","l1":"1 39766U 14029A   26203.57878868  .00001382  00000-0  19186-3 0  9999","l2":"2 39766  97.9225 300.2374 0001611  93.5156 266.6240 14.79472685656819"},{"id":"40010","name":"KAZEOSAT 2","type":"PAYLOAD","l1":"1 40010U 14033A   26203.59376512  .00000747  00000-0  92293-4 0  9994","l2":"2 40010  97.5402  41.3329 0007956 192.0448 168.0579 14.85507840654217"},{"id":"40011","name":"HODOYOSHI 4","type":"PAYLOAD","l1":"1 40011U 14033B   26203.60321939  .00001425  00000-0  15948-3 0  9995","l2":"2 40011  97.5469  26.7193 0023354 184.2830 175.8191 14.88201555654072"},{"id":"40013","name":"DEIMOS 2","type":"PAYLOAD","l1":"1 40013U 14033D   26203.61889515  .00001186  00000-0  11694-3 0  9995","l2":"2 40013  97.5787  76.8554 0001540 104.1990 255.9402 14.93812410643016"},{"id":"40015","name":"HODOYOSHI 3","type":"PAYLOAD","l1":"1 40015U 14033F   26203.34819538  .00000862  00000-0  10525-3 0  9997","l2":"2 40015  97.6454   4.9818 0031546 237.2982 122.5191 14.85447776652848"},{"id":"40053","name":"SPOT 7","type":"PAYLOAD","l1":"1 40053U 14034A   26203.59005420  .00000464  00000-0  10398-3 0  9990","l2":"2 40053  98.0607 265.1664 0001666  93.9789 266.1602 14.60985567642307"},{"id":"40072","name":"SKYSAT 2","type":"PAYLOAD","l1":"1 40072U 14037D   26202.62025596  .00000881  00000-0  10248-3 0  9990","l2":"2 40072  98.3858 163.5543 0006020 153.0763 207.0765 14.88102443651088"},{"id":"40115","name":"WORLDVIEW 3","type":"PAYLOAD","l1":"1 40115U 14048A   26203.47401630  .00000574  00000-0  73427-4 0  9999","l2":"2 40115  97.8550 277.8178 0001820 144.7822 215.3513 14.85072035647143"},{"id":"40118","name":"GAOFEN 2","type":"PAYLOAD","l1":"1 40118U 14049A   26203.64893578  .00000275  00000-0  42407-4 0  9990","l2":"2 40118  98.0088 267.8192 0008636 113.9973 246.2145 14.80932979644482"},{"id":"40143","name":"YAOGAN 21","type":"PAYLOAD","l1":"1 40143U 14053A   26203.62321674  .00009391  00000-0  35848-3 0  9992","l2":"2 40143  97.1460 242.3447 0006850 341.0137  19.0846 15.26833830660363"},{"id":"40275","name":"YAOGAN 22","type":"PAYLOAD","l1":"1 40275U 14063A   26203.32126364 -.00000028  00000-0  50821-4 0  9993","l2":"2 40275 100.7772 355.1848 0006900 110.6743 249.5108 13.15531668564435"},{"id":"40298","name":"ASNARO","type":"PAYLOAD","l1":"1 40298U 14070A   26203.65185873  .00010751  00000-0  50970-3 0  9999","l2":"2 40298  97.3436 278.8104 0004679  70.7149 289.4591 15.19458796649395"},{"id":"40310","name":"YAOGAN 24","type":"PAYLOAD","l1":"1 40310U 14072A   26203.66937722  .00000357  00000-0  59367-4 0  9996","l2":"2 40310  98.1535 341.3116 0015190 146.4669 213.7504 14.76123680628952"},{"id":"40336","name":"CBERS-4","type":"PAYLOAD","l1":"1 40336U 14079A   26203.58509135  .00000174  00000-0  75066-4 0  9996","l2":"2 40336  98.3511 259.3026 0000564  76.6297 283.4952 14.35517807609036"},{"id":"40362","name":"YAOGAN 26","type":"PAYLOAD","l1":"1 40362U 14088A   26203.62100990  .00011301  00000-0  21297-3 0  9996","l2":"2 40362  97.0658 203.0357 0000978 270.2345  89.8794 15.48659385643180"},{"id":"40376","name":"SMAP","type":"PAYLOAD","l1":"1 40376U 15003A   26203.56686439  .00000297  00000-0  66542-4 0  9994","l2":"2 40376  98.1287 210.1621 0001635  92.5937 267.5452 14.63393432612794"},{"id":"40536","name":"KOMPSAT 3A","type":"PAYLOAD","l1":"1 40536U 15014A   26203.57297583  .00032981  00000-0  44685-3 0  9991","l2":"2 40536  97.6901 197.5723 0055124  49.5579 311.0462 15.55777731627316"},{"id":"40697","name":"SENTINEL 2A","type":"PAYLOAD","l1":"1 40697U 15028A   26203.59932475  .00000424  00000-0  17852-3 0  9995","l2":"2 40697  98.5669 277.9461 0001343  96.2575 263.8761 14.30817198578793"},{"id":"40701","name":"GAOFEN 8","type":"PAYLOAD","l1":"1 40701U 15030A   26203.60848227  .00034386  00000-0  67598-3 0  9993","l2":"2 40701  97.6905  39.1354 0009691  73.2799 286.9513 15.47164267616928"},{"id":"40718","name":"CARBONITE 1","type":"PAYLOAD","l1":"1 40718U 15032D   26203.59028567  .00001947  00000-0  24144-3 0  9995","l2":"2 40718  97.6534  20.1796 0014584 172.1669 187.9776 14.83684278594593"},{"id":"40878","name":"YAOGAN 27","type":"PAYLOAD","l1":"1 40878U 15040A   26203.60628067  .00000010  00000-0  13748-3 0  9992","l2":"2 40878 100.1184 188.4552 0008766 128.8690 231.3207 13.16072770522324"},{"id":"40894","name":"GAOFEN 9","type":"PAYLOAD","l1":"1 40894U 15047A   26203.62250237  .00000783  00000-0  10215-3 0  9992","l2":"2 40894  97.6262 237.7053 0027915  26.9041 333.3614 14.82945159585449"},{"id":"41026","name":"YAOGAN 28","type":"PAYLOAD","l1":"1 41026U 15064A   26203.62876039  .00006970  00000-0  25867-3 0  9996","l2":"2 41026  97.3113 341.1874 0011877  70.0312 290.2206 15.27828046596097"},{"id":"41038","name":"YAOGAN 29","type":"PAYLOAD","l1":"1 41038U 15069A   26203.59822737  .00000464  00000-0  63569-4 0  9990","l2":"2 41038  98.0024 232.2850 0000085  64.8357 295.2865 14.83111615575879"},{"id":"41167","name":"KENT RIDGE 1","type":"PAYLOAD","l1":"1 41167U 15077B   26203.65442157  .00003253  00000-0  10178-3 0  9999","l2":"2 41167  14.9808   2.1785 0008274  19.8759 340.1885 15.23313975586517"},{"id":"41194","name":"GAOFEN 4","type":"PAYLOAD","l1":"1 41194U 15083A   26202.59970686 -.00000333  00000-0  00000-0 0  9998","l2":"2 41194   0.4439  83.8614 0004162 121.1097  55.9718  1.00270335 38877"},{"id":"41240","name":"JASON 3","type":"PAYLOAD","l1":"1 41240U 16002A   26203.57556455 -.00000045  00000-0  68610-4 0  9990","l2":"2 41240  66.0415  51.4349 0008126 270.2151  89.7937 12.87628961491801"},{"id":"41335","name":"SENTINEL 3A","type":"PAYLOAD","l1":"1 41335U 16011A   26203.49186501  .00000052  00000-0  39660-4 0  9997","l2":"2 41335  98.6231 270.3652 0001298  88.4537 271.6792 14.26741178543093"},{"id":"41556","name":"ZY 3 2","type":"PAYLOAD","l1":"1 41556U 16033A   26203.64180794  .00005449  00000-0  24715-3 0  9990","l2":"2 41556  97.3820 278.7339 0013506 162.1251 198.0463 15.21153676563376"},{"id":"41599","name":"CARTOSAT 2C","type":"PAYLOAD","l1":"1 41599U 16040A   26203.62710589  .00006599  00000-0  31544-3 0  9999","l2":"2 41599  97.4466 263.1138 0008849  21.8700 338.2911 15.19307376559094"}]}